{
    "week": 287,
    "satellites": [
        {
            "Name": "COSMOS 2545 (760)",
            "Line1": "1 45358U 20018A   24280.27076338 -.00000049  00000+0  00000+0 0  9990",
            "Line2": "2 45358  64.6954 334.0902 0011814 241.7681 118.1867  2.13102617 35470",
            "SatelliteNumber": "45358",
            "Classification": "U",
            "LaunchYear": "20",
            "LaunchNumber": "018",
            "PieceOfLaunch": "A",
            "EpochYear": "24",
            "EpochDay": 280.27076338,
            "FirstDerivativeMeanMotion": -4.9e-07,
            "SecondDerivativeMeanMotion": "00000+0",
            "BSTAR": "00000+0",
            "SetNumber": "999",
            "Inclination": 64.6954,
            "RAAN": 334.0902,
            "Eccentricity": 0.0011814,
            "ArgumentOfPerigee": 241.7681,
            "MeanAnomaly": 118.1867,
            "MeanMotion": 2.13102617,
            "RevolutionNumber": "3547"
        },
        {
            "Name": "COSMOS 2547 (705K)",
            "Line1": "1 46805U 20075A   24280.45735354  .00000033  00000+0  00000+0 0  9993",
            "Line2": "2 46805  64.5989 213.1454 0007724 239.9624 119.9722  2.13102825 30728",
            "SatelliteNumber": "46805",
            "Classification": "U",
            "LaunchYear": "20",
            "LaunchNumber": "075",
            "PieceOfLaunch": "A",
            "EpochYear": "24",
            "EpochDay": 280.45735354,
            "FirstDerivativeMeanMotion": 3.3e-07,
            "SecondDerivativeMeanMotion": "00000+0",
            "BSTAR": "00000+0",
            "SetNumber": "999",
            "Inclination": 64.5989,
            "RAAN": 213.1454,
            "Eccentricity": 0.0007724,
            "ArgumentOfPerigee": 239.9624,
            "MeanAnomaly": 119.9722,
            "MeanMotion": 2.13102825,
            "RevolutionNumber": "3072"
        },
        {
            "Name": "COSMOS 2557 (706K)",
            "Line1": "1 52984U 22075A   24280.62316418 -.00000050  00000+0  00000+0 0  9995",
            "Line2": "2 52984  64.6249 336.1977 0013281 273.7341  86.1875  2.13102264 17520",
            "SatelliteNumber": "52984",
            "Classification": "U",
            "LaunchYear": "22",
            "LaunchNumber": "075",
            "PieceOfLaunch": "A",
            "EpochYear": "24",
            "EpochDay": 280.62316418,
            "FirstDerivativeMeanMotion": -5e-07,
            "SecondDerivativeMeanMotion": "00000+0",
            "BSTAR": "00000+0",
            "SetNumber": "999",
            "Inclination": 64.6249,
            "RAAN": 336.1977,
            "Eccentricity": 0.0013281,
            "ArgumentOfPerigee": 273.7341,
            "MeanAnomaly": 86.1875,
            "MeanMotion": 2.13102264,
            "RevolutionNumber": "1752"
        },
        {
            "Name": "COSMOS 2559 (707K)",
            "Line1": "1 54031U 22130A   24280.56641947 -.00000051  00000+0  00000+0 0  9994",
            "Line2": "2 54031  64.5971 336.3135 0008239 224.8957 135.1109  2.13101545 15503",
            "SatelliteNumber": "54031",
            "Classification": "U",
            "LaunchYear": "22",
            "LaunchNumber": "130",
            "PieceOfLaunch": "A",
            "EpochYear": "24",
            "EpochDay": 280.56641947,
            "FirstDerivativeMeanMotion": -5.1e-07,
            "SecondDerivativeMeanMotion": "00000+0",
            "BSTAR": "00000+0",
            "SetNumber": "999",
            "Inclination": 64.5971,
            "RAAN": 336.3135,
            "Eccentricity": 0.0008239,
            "ArgumentOfPerigee": 224.8957,
            "MeanAnomaly": 135.1109,
            "MeanMotion": 2.13101545,
            "RevolutionNumber": "1550"
        },
        {
            "Name": "COSMOS 2564 (761)",
            "Line1": "1 54377U 22161A   24280.28749744  .00000032  00000+0  00000+0 0  9992",
            "Line2": "2 54377  64.7404 213.2758 0009979 220.7296 139.2061  2.13102186 14442",
            "SatelliteNumber": "54377",
            "Classification": "U",
            "LaunchYear": "22",
            "LaunchNumber": "161",
            "PieceOfLaunch": "A",
            "EpochYear": "24",
            "EpochDay": 280.28749744,
            "FirstDerivativeMeanMotion": 3.2e-07,
            "SecondDerivativeMeanMotion": "00000+0",
            "BSTAR": "00000+0",
            "SetNumber": "999",
            "Inclination": 64.7404,
            "RAAN": 213.2758,
            "Eccentricity": 0.0009979,
            "ArgumentOfPerigee": 220.7296,
            "MeanAnomaly": 139.2061,
            "MeanMotion": 2.13102186,
            "RevolutionNumber": "1444"
        },
        {
            "Name": "COSMOS 2569 (703K)",
            "Line1": "1 57517U 23114A   24279.83479747  .00000044  00000+0  00000+0 0  9995",
            "Line2": "2 57517  64.9682  93.5633 0008590 293.2293  66.7123  2.13104032  9069",
            "SatelliteNumber": "57517",
            "Classification": "U",
            "LaunchYear": "23",
            "LaunchNumber": "114",
            "PieceOfLaunch": "A",
            "EpochYear": "24",
            "EpochDay": 279.83479747,
            "FirstDerivativeMeanMotion": 4.4e-07,
            "SecondDerivativeMeanMotion": "00000+0",
            "BSTAR": "00000+0",
            "SetNumber": "999",
            "Inclination": 64.9682,
            "RAAN": 93.5633,
            "Eccentricity": 0.000859,
            "ArgumentOfPerigee": 293.2293,
            "MeanAnomaly": 66.7123,
            "MeanMotion": 2.13104032,
            "RevolutionNumber": "906"
        }
    ]
}